STARLINK-31081          
1 58632U 23203Q   26068.05330521 -.00001326  00000+0 -38670-4 0  9996
2 58632  43.0042  74.1567 0001210 279.3892  80.6822 15.27566603124658
FLOCK 4G-6              
1 62660U 25009BD  26068.71061311  .00012261  00000+0  45910-3 0  9991
2 62660  97.3980 150.7943 0002380 348.2637  11.8546 15.27432125121307
